{"type":"FeatureCollection","features":[{"type":"Feature","properties":{"name":"Beverly Grove","slug":"beverly-grove"},"geometry":{"type":"Polygon","coordinates":[[[-118.37251,34.09026],[-118.3725,34.08576],[-118.3725,34.08553],[-118.3725,34.08544],[-118.3725,34.08544],[-118.3725,34.08544],[-118.37249,34.08544],[-118.37184,34.08545],[-118.37184,34.08545],[-118.37174,34.08546],[-118.37164,34.08546],[-118.37099,34.08547],[-118.37099,34.08556],[-118.37024,34.08561],[-118.37025,34.08709],[-118.37,34.08709],[-118.36644,34.08714],[-118.36644,34.08718],[-118.36644,34.0872],[-118.36644,34.0872],[-118.36644,34.08734],[-118.36644,34.08747],[-118.36645,34.08761],[-118.36645,34.08774],[-118.36645,34.08787],[-118.36645,34.088],[-118.36645,34.0887],[-118.36645,34.08874],[-118.36645,34.08878],[-118.36646,34.08893],[-118.36488,34.08895],[-118.36486,34.08895],[-118.36484,34.08895],[-118.36388,34.08897],[-118.3638,34.08896],[-118.3637,34.08895],[-118.36329,34.08896],[-118.36329,34.08883],[-118.36329,34.08878],[-118.36329,34.08873],[-118.36328,34.08873],[-118.36282,34.08874],[-118.36281,34.08726],[-118.36281,34.0872],[-118.36271,34.0872],[-118.36271,34.0872],[-118.36271,34.0872],[-118.36146,34.08721],[-118.36146,34.08719],[-118.36145,34.08712],[-118.36141,34.07152],[-118.36139,34.06297],[-118.37204,34.06419],[-118.37207,34.06423],[-118.37281,34.06513],[-118.37316,34.06571],[-118.37318,34.06574],[-118.37335,34.06602],[-118.37337,34.06604],[-118.37355,34.06635],[-118.37358,34.06638],[-118.37414,34.0673],[-118.37577,34.0701],[-118.37582,34.07005],[-118.37583,34.07008],[-118.37584,34.07008],[-118.37589,34.07005],[-118.37592,34.07002],[-118.37597,34.06993],[-118.37605,34.06981],[-118.37605,34.06972],[-118.37605,34.06958],[-118.37612,34.06958],[-118.3762,34.06958],[-118.3762,34.06958],[-118.37636,34.06958],[-118.37634,34.06941],[-118.37636,34.06941],[-118.37652,34.06941],[-118.37652,34.06941],[-118.3766,34.0694],[-118.37673,34.0694],[-118.37674,34.0694],[-118.37675,34.0694],[-118.37688,34.0694],[-118.37688,34.0694],[-118.37689,34.0694],[-118.37702,34.0694],[-118.37702,34.0694],[-118.37703,34.0694],[-118.37716,34.0694],[-118.37717,34.0694],[-118.37717,34.0694],[-118.37726,34.0694],[-118.37726,34.0694],[-118.37727,34.0694],[-118.37728,34.0694],[-118.37729,34.0694],[-118.37729,34.06941],[-118.3773,34.06941],[-118.37731,34.06942],[-118.37731,34.06942],[-118.37731,34.06943],[-118.37731,34.06944],[-118.37732,34.06971],[-118.37742,34.06971],[-118.37742,34.06971],[-118.37749,34.06971],[-118.37752,34.06971],[-118.37753,34.06971],[-118.37753,34.06971],[-118.37763,34.06971],[-118.37837,34.06971],[-118.37838,34.06971],[-118.37839,34.06971],[-118.37905,34.06971],[-118.37915,34.06971],[-118.37915,34.06971],[-118.37929,34.06971],[-118.3793,34.06971],[-118.37944,34.06971],[-118.37947,34.06971],[-118.37954,34.06971],[-118.37955,34.06971],[-118.38232,34.06969],[-118.38232,34.06969],[-118.38247,34.06969],[-118.38261,34.06969],[-118.38263,34.06969],[-118.38278,34.06969],[-118.38281,34.06969],[-118.38296,34.06969],[-118.3831,34.06969],[-118.38324,34.06969],[-118.38325,34.06969],[-118.38329,34.06969],[-118.38363,34.06969],[-118.38363,34.06969],[-118.38374,34.06969],[-118.38378,34.07213],[-118.3874,34.07211],[-118.38973,34.07211],[-118.39072,34.0721],[-118.39073,34.07651],[-118.38974,34.07649],[-118.38962,34.07648],[-118.38961,34.07648],[-118.38924,34.07648],[-118.38884,34.07648],[-118.38875,34.07648],[-118.38866,34.07648],[-118.38866,34.07648],[-118.38857,34.07648],[-118.38826,34.07648],[-118.38813,34.07648],[-118.38369,34.07642],[-118.38362,34.07641],[-118.38359,34.07641],[-118.38324,34.0764],[-118.38307,34.0764],[-118.38291,34.0764],[-118.38283,34.0764],[-118.38274,34.0764],[-118.38259,34.0764],[-118.38243,34.0764],[-118.38228,34.0764],[-118.38213,34.0764],[-118.38198,34.0764],[-118.38183,34.0764],[-118.38175,34.0764],[-118.38171,34.0764],[-118.38171,34.0764],[-118.38167,34.0764],[-118.38167,34.07672],[-118.38167,34.07672],[-118.38164,34.07672],[-118.38152,34.07672],[-118.38137,34.07672],[-118.38122,34.07672],[-118.38106,34.07671],[-118.38091,34.07671],[-118.38076,34.07671],[-118.38068,34.07671],[-118.38068,34.07671],[-118.38068,34.07671],[-118.38068,34.07671],[-118.38067,34.07671],[-118.38067,34.07671],[-118.38019,34.07655],[-118.38013,34.07652],[-118.38005,34.07649],[-118.37996,34.07646],[-118.37988,34.07644],[-118.37986,34.07644],[-118.37978,34.07641],[-118.37978,34.07641],[-118.37975,34.0764],[-118.37968,34.0764],[-118.37963,34.0764],[-118.37959,34.0764],[-118.37949,34.0764],[-118.37947,34.0764],[-118.37915,34.0764],[-118.37881,34.07639],[-118.37881,34.0764],[-118.3788,34.0764],[-118.37879,34.07641],[-118.37865,34.07661],[-118.37862,34.07661],[-118.37854,34.07661],[-118.37718,34.0766],[-118.37718,34.0766],[-118.37718,34.0766],[-118.37718,34.07667],[-118.37718,34.07671],[-118.37718,34.07673],[-118.37718,34.07682],[-118.37718,34.07684],[-118.37717,34.07693],[-118.37717,34.07695],[-118.37717,34.07704],[-118.37717,34.07705],[-118.37717,34.07705],[-118.37717,34.07706],[-118.37717,34.07708],[-118.37717,34.07715],[-118.37717,34.07717],[-118.37717,34.07726],[-118.37717,34.07728],[-118.37717,34.07728],[-118.37717,34.07729],[-118.37717,34.07737],[-118.37717,34.07739],[-118.37716,34.07749],[-118.37716,34.07751],[-118.37718,34.07761],[-118.37718,34.07762],[-118.37719,34.07772],[-118.37719,34.07775],[-118.37719,34.07778],[-118.37719,34.07778],[-118.3772,34.07783],[-118.3772,34.07788],[-118.37721,34.07794],[-118.37722,34.07801],[-118.37722,34.07801],[-118.37722,34.07805],[-118.37722,34.07807],[-118.37723,34.07814],[-118.37723,34.07816],[-118.37723,34.07817],[-118.37723,34.07818],[-118.37738,34.07843],[-118.37758,34.07874],[-118.37755,34.07876],[-118.37706,34.07892],[-118.37705,34.07891],[-118.37703,34.07892],[-118.37691,34.07897],[-118.37691,34.07897],[-118.37691,34.07897],[-118.3769,34.07897],[-118.37694,34.07911],[-118.37698,34.07924],[-118.37698,34.07924],[-118.37699,34.07926],[-118.37724,34.08013],[-118.37723,34.08013],[-118.37656,34.08016],[-118.37529,34.08016],[-118.37528,34.08016],[-118.37528,34.08016],[-118.37518,34.08016],[-118.37518,34.08025],[-118.37518,34.08037],[-118.37518,34.08048],[-118.37518,34.08059],[-118.37518,34.0807],[-118.37518,34.08084],[-118.37518,34.08098],[-118.37518,34.08112],[-118.37518,34.08125],[-118.37518,34.08139],[-118.37518,34.08153],[-118.37518,34.08167],[-118.37518,34.0818],[-118.37518,34.08194],[-118.37475,34.08194],[-118.37432,34.08194],[-118.37432,34.08181],[-118.37432,34.08167],[-118.37432,34.08153],[-118.37432,34.08139],[-118.37432,34.08126],[-118.37432,34.08112],[-118.37432,34.08098],[-118.37432,34.08084],[-118.37432,34.08071],[-118.37432,34.0806],[-118.37432,34.08049],[-118.37432,34.08038],[-118.37432,34.08025],[-118.37432,34.08017],[-118.37422,34.08017],[-118.37422,34.08017],[-118.37031,34.08017],[-118.37031,34.08033],[-118.37031,34.08151],[-118.37031,34.08203],[-118.37031,34.08316],[-118.37041,34.08316],[-118.37076,34.08316],[-118.37077,34.08316],[-118.37115,34.08315],[-118.37125,34.08315],[-118.37135,34.08315],[-118.37172,34.08314],[-118.37173,34.08314],[-118.37211,34.08314],[-118.37221,34.08313],[-118.37231,34.08313],[-118.37269,34.08313],[-118.37276,34.08313],[-118.3729,34.08312],[-118.37307,34.08312],[-118.37317,34.08312],[-118.37327,34.08312],[-118.37348,34.08312],[-118.37363,34.08311],[-118.37378,34.08311],[-118.37383,34.08311],[-118.37411,34.08311],[-118.37439,34.0831],[-118.3748,34.0831],[-118.37495,34.08309],[-118.3751,34.08309],[-118.37513,34.08309],[-118.37528,34.08309],[-118.37635,34.08307],[-118.37652,34.08307],[-118.37658,34.08305],[-118.37704,34.08304],[-118.37704,34.08304],[-118.37704,34.08306],[-118.37704,34.08306],[-118.37704,34.08315],[-118.37704,34.08317],[-118.37704,34.08317],[-118.37704,34.08318],[-118.37704,34.08319],[-118.37704,34.08329],[-118.37704,34.08342],[-118.37704,34.08354],[-118.37704,34.08363],[-118.37704,34.08366],[-118.37704,34.08366],[-118.37703,34.08376],[-118.37703,34.08379],[-118.37703,34.08391],[-118.37703,34.08403],[-118.37703,34.08411],[-118.37703,34.08416],[-118.37703,34.08416],[-118.37703,34.08428],[-118.37703,34.08428],[-118.37703,34.0843],[-118.37702,34.0844],[-118.37702,34.08453],[-118.37702,34.08459],[-118.37702,34.08465],[-118.37702,34.08465],[-118.37702,34.08466],[-118.37702,34.08473],[-118.37702,34.08479],[-118.37702,34.08485],[-118.37702,34.08492],[-118.37701,34.08506],[-118.37701,34.08519],[-118.37701,34.08532],[-118.37701,34.08532],[-118.37701,34.08545],[-118.37701,34.08558],[-118.37701,34.08572],[-118.377,34.08585],[-118.377,34.08596],[-118.377,34.08607],[-118.377,34.08609],[-118.377,34.08618],[-118.377,34.08622],[-118.377,34.08629],[-118.377,34.0863],[-118.377,34.08636],[-118.377,34.0864],[-118.377,34.08641],[-118.37699,34.08649],[-118.37699,34.08649],[-118.37699,34.08651],[-118.37699,34.08662],[-118.37699,34.08675],[-118.37699,34.08683],[-118.37699,34.08688],[-118.37699,34.08698],[-118.37699,34.08701],[-118.37699,34.08704],[-118.37698,34.08714],[-118.37698,34.08725],[-118.37698,34.08728],[-118.37698,34.0873],[-118.37698,34.08741],[-118.37698,34.08741],[-118.37698,34.0875],[-118.37698,34.08754],[-118.37698,34.08765],[-118.37698,34.08768],[-118.37697,34.08781],[-118.37697,34.08787],[-118.37697,34.08794],[-118.37697,34.08807],[-118.37697,34.0882],[-118.37697,34.0883],[-118.37696,34.08833],[-118.37696,34.08843],[-118.37696,34.0885],[-118.37696,34.08853],[-118.37696,34.08857],[-118.37696,34.08861],[-118.37696,34.08864],[-118.3769,34.08867],[-118.37678,34.08874],[-118.37671,34.08877],[-118.37664,34.08881],[-118.37641,34.08893],[-118.37629,34.08899],[-118.37629,34.08899],[-118.37626,34.08899],[-118.37584,34.089],[-118.37577,34.089],[-118.37577,34.089],[-118.37577,34.08908],[-118.3754,34.08914],[-118.37539,34.08915],[-118.37539,34.08915],[-118.3753,34.08928],[-118.3752,34.08942],[-118.37508,34.08942],[-118.37477,34.08943],[-118.37477,34.08943],[-118.37477,34.08955],[-118.37477,34.0897],[-118.3746,34.08971],[-118.37434,34.08971],[-118.37434,34.08971],[-118.37424,34.08971],[-118.37424,34.08983],[-118.37414,34.08996],[-118.37372,34.08997],[-118.37371,34.08997],[-118.37371,34.09005],[-118.37329,34.09006],[-118.37328,34.09006],[-118.3732,34.09014],[-118.37251,34.09026]]]}},{"type":"Feature","properties":{"name":"East Hollywood","slug":"east-hollywood"},"geometry":{"type":"Polygon","coordinates":[[[-118.2874,34.09836],[-118.2874,34.09817],[-118.28711,34.09817],[-118.2862,34.09757],[-118.28608,34.09749],[-118.28414,34.09582],[-118.2846,34.09582],[-118.28442,34.0779],[-118.28441,34.07672],[-118.28622,34.0767],[-118.28629,34.0767],[-118.28682,34.07648],[-118.28682,34.07634],[-118.30916,34.07625],[-118.30916,34.07625],[-118.30919,34.08351],[-118.30919,34.08351],[-118.30927,34.10174],[-118.30927,34.10174],[-118.29298,34.10177],[-118.29288,34.10173],[-118.2922,34.10151],[-118.2874,34.09836]]]}},{"type":"Feature","properties":{"name":"Echo Park","slug":"echo-park"},"geometry":{"type":"Polygon","coordinates":[[[-118.24487,34.09569],[-118.24454,34.09568],[-118.24479,34.09599],[-118.24423,34.09565],[-118.24401,34.09552],[-118.24432,34.09555],[-118.24443,34.09556],[-118.24343,34.09448],[-118.24363,34.09419],[-118.24309,34.09368],[-118.24331,34.09349],[-118.24424,34.09394],[-118.2446,34.09376],[-118.24491,34.09321],[-118.24523,34.09201],[-118.24559,34.09143],[-118.24372,34.09051],[-118.24369,34.08906],[-118.24465,34.08835],[-118.2462,34.08775],[-118.24826,34.08593],[-118.24884,34.08528],[-118.24885,34.08393],[-118.25,34.0825],[-118.24894,34.08128],[-118.24825,34.08075],[-118.24904,34.07801],[-118.24881,34.07664],[-118.24863,34.07573],[-118.24707,34.07242],[-118.24697,34.07232],[-118.2461,34.07145],[-118.24565,34.07099],[-118.24592,34.06893],[-118.24771,34.06572],[-118.24774,34.06567],[-118.24824,34.06542],[-118.24894,34.06553],[-118.25206,34.06251],[-118.25421,34.05916],[-118.25527,34.05794],[-118.2568,34.05898],[-118.25966,34.06201],[-118.25989,34.06436],[-118.26123,34.06962],[-118.2638,34.07056],[-118.26918,34.07289],[-118.26909,34.07303],[-118.27209,34.07442],[-118.273,34.07477],[-118.27422,34.07523],[-118.27419,34.0753],[-118.27188,34.07908],[-118.27026,34.08065],[-118.26851,34.08367],[-118.26664,34.08646],[-118.26444,34.08546],[-118.26334,34.08726],[-118.25992,34.08578],[-118.2592,34.08979],[-118.25853,34.091],[-118.25847,34.09154],[-118.25572,34.09395],[-118.25554,34.09383],[-118.25516,34.09424],[-118.25463,34.09482],[-118.25165,34.09852],[-118.25184,34.09861],[-118.25061,34.10043],[-118.25081,34.10074],[-118.25078,34.1008],[-118.25073,34.10091],[-118.24992,34.09951],[-118.2499,34.09947],[-118.24633,34.09703],[-118.24556,34.09609],[-118.2454,34.09599],[-118.24513,34.09584],[-118.24487,34.09569]]]}},{"type":"Feature","properties":{"name":"Hollywood","slug":"hollywood"},"geometry":{"type":"Polygon","coordinates":[[[-118.32802,34.10545],[-118.32688,34.10525],[-118.3268,34.10525],[-118.30929,34.10539],[-118.30929,34.10539],[-118.30927,34.10174],[-118.30916,34.08351],[-118.30919,34.08351],[-118.32661,34.08347],[-118.34406,34.08344],[-118.34406,34.08344],[-118.34407,34.0889],[-118.3434,34.0889],[-118.3434,34.0889],[-118.3434,34.08898],[-118.34339,34.09433],[-118.34341,34.09433],[-118.34341,34.09437],[-118.34341,34.09441],[-118.344,34.09441],[-118.3441,34.09443],[-118.3442,34.09444],[-118.34426,34.09444],[-118.34426,34.09444],[-118.34429,34.09444],[-118.34429,34.09444],[-118.34463,34.09445],[-118.34464,34.09445],[-118.34507,34.09445],[-118.34508,34.09445],[-118.34529,34.09445],[-118.34573,34.09445],[-118.34616,34.09446],[-118.34627,34.09446],[-118.34632,34.09446],[-118.34657,34.09446],[-118.34706,34.09446],[-118.34717,34.09446],[-118.34727,34.09447],[-118.34729,34.09447],[-118.34777,34.09447],[-118.34794,34.09447],[-118.34822,34.09447],[-118.34833,34.09447],[-118.34843,34.09447],[-118.34845,34.09447],[-118.34875,34.09448],[-118.34895,34.09448],[-118.34914,34.09448],[-118.34943,34.09448],[-118.34955,34.09448],[-118.34965,34.09448],[-118.34993,34.09449],[-118.35009,34.09449],[-118.3501,34.09449],[-118.35012,34.09449],[-118.35055,34.09449],[-118.35064,34.09449],[-118.35073,34.09449],[-118.35118,34.0945],[-118.3512,34.0945],[-118.35121,34.0945],[-118.35166,34.0945],[-118.35174,34.0945],[-118.35182,34.0945],[-118.35227,34.0945],[-118.3527,34.09451],[-118.35283,34.09451],[-118.35283,34.09448],[-118.35297,34.09448],[-118.35306,34.09448],[-118.35313,34.09448],[-118.35346,34.09448],[-118.35362,34.09449],[-118.35392,34.09449],[-118.35405,34.09449],[-118.35422,34.09449],[-118.35428,34.09449],[-118.35439,34.09449],[-118.35445,34.09449],[-118.35446,34.09449],[-118.3545,34.09449],[-118.35456,34.09449],[-118.35471,34.09449],[-118.35488,34.0945],[-118.35501,34.0945],[-118.35514,34.0945],[-118.35529,34.0945],[-118.35545,34.0945],[-118.35562,34.0945],[-118.35578,34.0945],[-118.35593,34.0945],[-118.35604,34.0945],[-118.35654,34.09451],[-118.35674,34.09451],[-118.35709,34.09451],[-118.35818,34.09452],[-118.35872,34.09452],[-118.35874,34.09452],[-118.35917,34.09453],[-118.35927,34.09453],[-118.36036,34.09453],[-118.36155,34.09454],[-118.36155,34.09454],[-118.36155,34.09454],[-118.36155,34.09454],[-118.36155,34.09457],[-118.36158,34.10131],[-118.35964,34.10169],[-118.35395,34.10166],[-118.35396,34.10347],[-118.34677,34.10343],[-118.34428,34.10412],[-118.33838,34.10414],[-118.3377,34.10457],[-118.33748,34.10518],[-118.32939,34.10525],[-118.32802,34.10545]]]}},{"type":"Feature","properties":{"name":"Koreatown","slug":"koreatown"},"geometry":{"type":"Polygon","coordinates":[[[-118.28785,34.06182],[-118.28783,34.05979],[-118.2891,34.05979],[-118.28908,34.05241],[-118.29091,34.05241],[-118.29244,34.05266],[-118.31288,34.05263],[-118.31331,34.05282],[-118.31331,34.05261],[-118.31673,34.05251],[-118.31862,34.05306],[-118.32296,34.05468],[-118.32297,34.05469],[-118.3191,34.06173],[-118.3142,34.0617],[-118.31404,34.06254],[-118.31422,34.07114],[-118.31399,34.07153],[-118.31345,34.07179],[-118.31345,34.07272],[-118.31359,34.07291],[-118.3136,34.07624],[-118.3136,34.07624],[-118.30916,34.07625],[-118.28682,34.07634],[-118.28681,34.06899],[-118.2868,34.06772],[-118.28709,34.06772],[-118.28704,34.06182],[-118.28785,34.06182]]]}},{"type":"Feature","properties":{"name":"Mid-Wilshire","slug":"mid-wilshire"},"geometry":{"type":"Polygon","coordinates":[[[-118.32296,34.05468],[-118.32672,34.04782],[-118.32673,34.04783],[-118.33643,34.04881],[-118.34588,34.04774],[-118.35632,34.0485],[-118.36251,34.0507],[-118.36665,34.05151],[-118.36651,34.05236],[-118.36377,34.05831],[-118.36357,34.05874],[-118.36139,34.06297],[-118.36142,34.07152],[-118.36141,34.07152],[-118.3537,34.07045],[-118.34621,34.069],[-118.34615,34.06899],[-118.34407,34.0689],[-118.34403,34.0689],[-118.34407,34.06218],[-118.3191,34.06173],[-118.32296,34.05468]]]}},{"type":"Feature","properties":{"name":"Silver Lake","slug":"silver-lake"},"geometry":{"type":"Polygon","coordinates":[[[-118.26484,34.11282],[-118.26354,34.11151],[-118.26267,34.11087],[-118.26235,34.11067],[-118.26135,34.11004],[-118.26096,34.1098],[-118.26067,34.10967],[-118.26014,34.10945],[-118.25941,34.10913],[-118.25665,34.10825],[-118.25637,34.10868],[-118.25502,34.10853],[-118.25342,34.10864],[-118.25656,34.10598],[-118.25593,34.10555],[-118.25371,34.10464],[-118.2515,34.10244],[-118.25082,34.10091],[-118.25078,34.10081],[-118.25078,34.1008],[-118.25061,34.10043],[-118.25184,34.09861],[-118.25165,34.09852],[-118.25516,34.09424],[-118.25532,34.09404],[-118.25554,34.09383],[-118.25572,34.09395],[-118.25847,34.09154],[-118.25853,34.091],[-118.2592,34.08979],[-118.25992,34.08578],[-118.26334,34.08726],[-118.26444,34.08546],[-118.26664,34.08646],[-118.26851,34.08367],[-118.27026,34.08065],[-118.27188,34.07908],[-118.27418,34.0753],[-118.27419,34.0753],[-118.27992,34.07686],[-118.28023,34.07695],[-118.28442,34.0779],[-118.28442,34.0779],[-118.2846,34.09582],[-118.27717,34.09578],[-118.27651,34.09606],[-118.2764,34.09611],[-118.27634,34.0962],[-118.27552,34.09744],[-118.27406,34.09877],[-118.27399,34.09884],[-118.27377,34.09925],[-118.27351,34.09971],[-118.27345,34.09983],[-118.27304,34.10245],[-118.27337,34.10406],[-118.27138,34.10923],[-118.26914,34.11164],[-118.26903,34.11155],[-118.26614,34.11275],[-118.26612,34.11278],[-118.26556,34.11348],[-118.26554,34.11351],[-118.26484,34.11282]]]}},{"type":"Feature","properties":{"name":"Westlake","slug":"westlake"},"geometry":{"type":"Polygon","coordinates":[[[-118.25908,34.05389],[-118.25984,34.05309],[-118.26003,34.05318],[-118.25967,34.05288],[-118.2601,34.05241],[-118.26016,34.05238],[-118.26149,34.05149],[-118.26102,34.05121],[-118.26655,34.04786],[-118.26665,34.04791],[-118.26674,34.04795],[-118.26884,34.04677],[-118.28102,34.05215],[-118.28094,34.05227],[-118.28295,34.05333],[-118.28358,34.05237],[-118.28908,34.05241],[-118.2891,34.05979],[-118.28783,34.05979],[-118.28785,34.06182],[-118.28704,34.06182],[-118.28709,34.06772],[-118.2868,34.06772],[-118.28682,34.07648],[-118.28622,34.0767],[-118.28618,34.07671],[-118.28441,34.07672],[-118.28442,34.0779],[-118.28442,34.0779],[-118.27992,34.07686],[-118.27968,34.0768],[-118.27419,34.0753],[-118.27418,34.0753],[-118.273,34.07477],[-118.26909,34.07303],[-118.26918,34.07289],[-118.2638,34.07056],[-118.26123,34.06962],[-118.25989,34.06436],[-118.25966,34.06201],[-118.2568,34.05898],[-118.25527,34.05794],[-118.25908,34.05389]]]}}]}